[{"OBJECT_NAME":"STARLINK-3159","OBJECT_ID":"2021-104H","EPOCH":"2026-03-09T15:20:30.727392","MEAN_MOTION":15.08841039,"ECCENTRICITY":0.000111,"INCLINATION":53.2174,"RA_OF_ASC_NODE":219.3501,"ARG_OF_PERICENTER":90.4458,"MEAN_ANOMALY":269.6662,"EPHEMERIS_TYPE":0,"CLASSIFICATION_TYPE":"U","NORAD_CAT_ID":49415,"ELEMENT_SET_NO":999,"REV_AT_EPOCH":23875,"BSTAR":-2.3118e-5,"MEAN_MOTION_DOT":-6.56e-6,"MEAN_MOTION_DDOT":0},{"OBJECT_NAME":"OBJECT J","OBJECT_ID":"2017-042J","EPOCH":"2026-03-09T23:17:19.167936","MEAN_MOTION":15.08203331,"ECCENTRICITY":0.00078186,"INCLINATION":97.4246,"RA_OF_ASC_NODE":235.0467,"ARG_OF_PERICENTER":81.5059,"MEAN_ANOMALY":278.7055,"EPHEMERIS_TYPE":0,"CLASSIFICATION_TYPE":"U","NORAD_CAT_ID":42833,"ELEMENT_SET_NO":999,"REV_AT_EPOCH":47205,"BSTAR":0.00039182004,"MEAN_MOTION_DOT":6.006e-5,"MEAN_MOTION_DDOT":0}]
